P/2021 L2 (Leonard),e,21.0682,266.6657,51.5324,4.052655,0.1208077,0.52167250,13.8314,11/16.0/2021,2000,g 17.0,4.0
# From MPEC 2021-UA9
C/2021 L3 (Borisov),h,02/13.6989/2022,78.5797,344.9666,91.5967,1.000689,8.457441,2000,6.0,4.0
# From MPEC 2021-R75
P/2021 L4 (PANSTARRS),e,16.9619,243.2252,234.6036,3.164912,0.1750498,0.11860803,140.7442,11/16.0/2021,2000,g 13.5,4.0
# From MPEC 2021-P47
P/2021 N1 (ZTF),e,11.5059,301.1641,21.1929,2.977042,0.1918786,0.67677263,31.1703,11/16.0/2021,2000,g 19.0,4.0
# From MPEC 2021-UA9
P/2021 N2 (Fuls),e,13.0626,221.7426,177.3174,6.933679,0.0539832,0.45243363,0.1550,11/16.0/2021,2000,g  9.5,4.0
# From MPEC 2021-TD0
C/2021 N3 (PANSTARRS),e,26.7505,337.4942,304.5665,161.2338,0.0004814,0.96461293,0.2188,11/16.0/2021,2000,g  8.5,4.0
# From MPEC 2021-R75
C/2021 O1 (Nishimura),h,08/13.9278/2021,27.5733,41.6075,74.4496,1.000169,0.786968,2000,10.5,4.0
# From MPEC 2021-UA9
C/2021 O3 (PANSTARRS),h,04/21.0466/2022,56.7764,189.0254,299.9871,1.000131,0.287305,2000,10.5,4.0
# From MPEC 2021-U31
C/2021 P1 (PANSTARRS),e,51.6274,359.6725,40.3802,21649,0.0000003,0.99979793,0.0000,06/01.8221/2022,2000,g 11.0,4.0
# From MPEC 2021-UA9
C/2021 P2 (PANSTARRS),e,150.0207,31.9953,76.4996,2403,0.0000084,0.99788927,0.0000,01/21.8762/2023,2000,g  9.0,4.0
# From MPEC 2021-UA9
P/2021 P3 (PANSTARRS),e,27.1557,358.2376,334.1831,4.419224,0.1060926,0.34019005,17.9499,11/16.0/2021,2000,g 14.0,4.0
# From MPEC 2021-UA9
C/2021 P4 (ATLAS),e,56.3118,348.0963,175.8228,307.1394,0.0001831,0.99648187,0.0000,07/30.4019/2022,2000,g  9.5,4.0
# From MPEC 2021-UA9
C/2021 Q3 (ATLAS),e,77.7776,307.9045,114.0997,74.66312,0.0015277,0.93028729,359.8913,11/16.0/2021,2000,g  8.0,4.0
# From MPEC 2021-UA9
C/2021 Q4 (Fuls),h,06/09.0239/2023,71.4739,183.3319,146.8999,1.003438,7.567100,2000,6.0,4.0
# From MPEC 2021-UA9
P/2021 Q5 (ATLAS),e,10.7340,239.7727,180.8886,3.284290,0.1655930,0.62412711,12.8456,11/16.0/2021,2000,g 15.0,4.0
# From MPEC 2021-UA9
C/2021 Q6 (PANSTARRS),e,161.8469,133.5417,140.8106,8296,0.0000013,0.99894946,0.0000,03/21.4558/2024,2000,g  6.0,4.0
# From MPEC 2021-U31
P/2021 R1 (PANSTARRS),e,5.5213,143.4088,220.2911,8.429925,0.0402688,0.42042594,358.7366,11/16.0/2021,2000,g 11.0,4.0
# From MPEC 2021-U31
C/2021 R2 (PANSTARRS),e,134.4726,16.2849,32.3245,3578,0.0000046,0.99795615,0.0000,12/25.3518/2021,2000,g  7.5,4.0
# From MPEC 2021-S45
P/2021 R3 (PANSTARRS),e,19.9283,304.2430,2.9716,3.778988,0.1341655,0.33180075,23.2141,11/16.0/2021,2000,g 16.0,4.0
# From MPEC 2021-U31
P/2021 R4 (Wierzchos),e,21.0418,321.2592,56.6326,5.620073,0.0739760,0.58610403,2.4448,11/16.0/2021,2000,g 16.0,4.0
# From MPEC 2021-UA9
P/2021 R5 (Rankin),e,7.8527,219.9618,167.3464,4.797419,0.0937978,0.30740164,354.6505,11/16.0/2021,2000,g 12.0,4.0
# From MPEC 2021-U31
P/2021 R6 (Groeller),e,34.9286,176.1164,220.7211,6.274875,0.0627042,0.59326681,0.9489,11/16.0/2021,2000,g 14.5,4.0
# From MPEC 2021-TG2
C/2021 R7 (PANSTARRS),e,158.8587,170.1394,140.0518,1646,0.0000148,0.99657236,0.0000,04/15.1027/2021,2000,g 10.5,4.0
# From MPEC 2021-UA9
C/2021 S1 (ATLAS),h,02/28.6228/2022,52.0909,299.8716,148.1597,1.000501,6.119290,2000,7.0,4.0
# From MPEC 2021-UA9
C/2021 S3 (PANSTARRS),e,58.5762,215.6951,6.9436,476.2529,0.0000948,0.99721759,0.0000,02/18.3683/2024,2000,g  5.5,4.0
# From MPEC 2021-UA9
C/2021 S4 (Tsuchinshan),e,17.4678,5.4847,72.6819,159.6035,0.0004888,0.95804926,359.6211,11/16.0/2021,2000,g  6.5,4.0
# From MPEC 2021-UA9
C/2021 T1 (Lemmon),e,140.3471,56.8082,51.4925,1038,0.0000295,0.99705397,0.0000,10/14.0612/2021,2000,g 12.5,4.0
# From MPEC 2021-U31
C/2021 T2 (Fuls),h,06/04.6237/2022,118.0937,223.0055,261.9814,1.030606,1.262632,2000,12.0,4.0
# From MPEC 2021-UI7
C/2021 T4 (Lemmon),e,160.7581,257.7999,329.7749,9791,0.0000010,0.99984859,0.0000,07/31.5792/2023,2000,g  7.5,4.0
# From MPEC 2021-UA9
P/2021 U1 (Wierzchos),e,30.5632,246.7902,145.0321,8.520188,0.0396306,0.71300470,1.8255,11/16.0/2021,2000,g 14.5,4.0
# From MPEC 2021-V21
P/2021 U3 (Attard-Maury),e,70.0586,75.0998,335.4839,4.227762,0.1133805,0.55332140,2.4448,11/16.0/2021,2000,g 15.5,4.0
# From MPEC 2021-V22
C/2021 U4 (Leonard),e,152.8819,241.8127,237.2393,47.80160,0.0029822,0.96259651,359.8931,11/16.0/2021,2000,g 17.0,4.0
# From MPEC 2021-VJ9
C/2021 U5 (Catalina),e,39.0378,182.8369,321.1851,385.2303,0.0001304,0.99385442,0.0000,01/26.0185/2022,2000,g 13.0,4.0
# From MPEC 2021-VG7
C/2021 V1 (Rankin),e,71.4390,207.6543,195.1068,666.3827,0.0000573,0.99547799,0.0000,04/30.3695/2022,2000,g 13.0,4.0
# From MPEC 2021-VG9
P/2021 V2 (Fuls),e,12.6962,232.2930,259.8590,9.035568,0.0362887,0.61310618,344.3375,11/16.0/2021,2000,g 10.0,4.0
# From MPEC 2021-VH3
P/2021 V3 (PANSTARRS),e,3.6898,245.8684,206.6885,4.558137,0.1012799,0.25398997,332.1166,11/16.0/2021,2000,g 13.0,4.0
# From  98, 1083
1P/Halley,e,162.2357,58.8768,111.8080,17.87272,0.0130442,0.96624687,170.3882,11/16.0/2021,2000,g  4.0,6.0
# From MPEC 2021-TD0
2P/Encke,e,11.7948,334.5128,186.6564,2.218234,0.2983273,0.84955541,151.1063,11/16.0/2021,2000,g 11.5,6.0
# From MPEC 2021-UA9
4P/Faye,e,8.0083,192.9311,206.9999,3.823684,0.1318199,0.57662055,8.9853,11/16.0/2021,2000,g  8.0,6.0
# From MPEC 2021-UA9
6P/d'Arrest,e,19.5123,138.9353,178.0961,3.498394,0.1506264,0.61279575,8.9213,11/16.0/2021,2000,g  7.5,16.0
# From MPEC 2021-UA9
7P/Pons-Winnecke,e,22.3621,93.3667,172.5934,3.413936,0.1562504,0.63851317,27.0147,11/16.0/2021,2000,g 10.0,6.0
# From MPEC 2021-UA9
8P/Tuttle,e,54.9108,270.2028,207.4879,5.707679,0.0722794,0.82024184,5.8014,11/16.0/2021,2000,g  8.0,8.0
# From MPEC 2021-F20
9P/Tempel,e,10.4698,68.7152,179.3468,3.146262,0.1766086,0.50918525,340.7592,11/16.0/2021,2000,g 12.5,4.0
# From MPEC 2021-UA9
10P/Tempel,e,12.0394,117.8087,195.4972,3.060765,0.1840598,0.53850812,43.5757,11/16.0/2021,2000,g  5.0,10.0
# From MPEC 2021-UA9
11P/Tempel-Swift-LINEAR,e,14.4212,238.9007,167.9590,3.283689,0.1656384,0.57715296,58.7534,11/16.0/2021,2000,g 17.0,4.0
# From  27, 604
12P/Pons-Brooks,e,74.1427,255.7836,198.9918,17.14952,0.0138780,0.95441229,347.6946,11/16.0/2021,2000,g  5.0,6.0
# From  27, 604
13P/Olbers,e,44.6200,85.9235,64.4242,16.73624,0.0143952,0.92979209,346.2053,11/16.0/2021,2000,g  5.0,6.0
# From MPEC 2021-F20
14P/Wolf,e,27.9172,202.0482,159.0324,4.258471,0.1121563,0.35708294,161.9350,11/16.0/2021,2000,g  5.5,12.0
# From MPEC 2021-UA9
15P/Finlay,e,6.7977,13.7127,347.8289,3.505904,0.1501426,0.71704026,18.8465,11/16.0/2021,2000,g 12.0,4.0
# From MPEC 2021-S45
16P/Brooks,e,3.0116,138.8645,245.1953,3.656439,0.1409667,0.48631355,29.8451,11/16.0/2021,2000,g  7.5,10.0
# From MPEC 2021-UA9
17P/Holmes,e,19.0321,326.6205,24.4860,3.635668,0.1421765,0.42763735,38.2653,11/16.0/2021,2000,g 10.0,6.0
# From MPEC 2021-UA9
19P/Borrelly,e,29.3043,74.2476,351.9133,3.605320,0.1439754,0.63767639,348.7956,11/16.0/2021,2000,g  4.5,10.0
# From MPEC 2021-F20
21P/Giacobini-Zinner,e,32.0446,195.3463,172.8642,3.495602,0.1508069,0.71108377,175.2456,11/16.0/2021,2000,g 11.4,4.0
# From MPEC 2021-S45
22P/Kopff,e,4.7420,120.8352,163.0147,3.440434,0.1544487,0.54876767,341.1383,11/16.0/2021,2000,g  3.0,10.4
# From MPC 14747
23P/Brorsen-Metcalf,e,19.1447,312.3744,128.8410,16.94831,0.0141258,0.97151792,0.0000,08/04.7839/1989,2000,g 10.0,6.0
# From MPC110085
24P/Schaumasse,e,11.5247,78.5350,58.3067,4.053471,0.1207712,0.70809345,176.9201,11/16.0/2021,2000,g  6.5,14.0
# From MPC 94674
26P/Grigg-Skjellerup,e,22.4325,211.5393,2.1727,3.014505,0.1883129,0.64029563,215.0657,11/16.0/2021,2000,g 12.0,16.0
# From MPC 78188
27P/Crommelin,e,29.2378,250.6175,195.9234,9.184113,0.0354118,0.91840117,133.4631,11/16.0/2021,2000,g 12.0,8.0
# From MPEC 2021-UA9
28P/Neujmin,e,14.3120,346.3317,347.4158,6.976052,0.0534921,0.77373616,13.3260,11/16.0/2021,2000,g  8.5,6.0
# From MPEC 2021-UA9
29P/Schwassmann-Wachmann,e,9.3665,312.3788,49.6009,6.040917,0.0663819,0.04476446,63.6667,11/16.0/2021,2000,g  4.0,4.0
# From MPC110085
30P/Reinmuth,e,8.1850,118.1702,9.6103,3.703596,0.1382830,0.52249869,221.3493,11/16.0/2021,2000,g  9.5,6.0
# From MPEC 2021-F20
31P/Schwassmann-Wachmann,e,4.5474,114.1092,18.0770,4.237887,0.1129744,0.19213329,97.7941,11/16.0/2021,2000,g 13.1,4.0
# From MPC 92276
32P/Comas Sola,e,9.8703,55.7401,54.6190,4.513662,0.1027804,0.55944604,268.8362,11/16.0/2021,2000,g  6.5,8.0
# From MPEC 2013-O31
33P/Daniel,e,22.2989,66.3168,20.5224,4.085968,0.1193333,0.45164783,229.6569,11/16.0/2021,2000,g 10.0,12.0
# From  15, 452
35P/Herschel-Rigollet,e,65.215,356.695,28.962,28.5576,0.006458,0.9739889,0.000,01/08.8102/2092,2000,g  9.0,4.0
# From MPEC 2021-S45
36P/Whipple,e,9.9519,181.8468,200.8945,4.134349,0.1172447,0.26900000,62.4679,11/16.0/2021,2000,g  8.5,6.0
# From MPEC 2021-F20
37P/Forbes,e,8.9568,314.5616,330.1221,3.460598,0.1531008,0.53365281,197.7663,11/16.0/2021,2000,g 13.8,4.0
# From MPEC 2018-S50
38P/Stephan-Oterma,e,18.3673,77.9536,359.5016,11.23687,0.0261659,0.85905745,28.8059,11/16.0/2021,2000,g  3.5,12.0
# From MPEC 2020-W26
39P/Oterma,e,1.5560,299.0686,96.6164,7.371975,0.0492412,0.22329193,332.4369,11/16.0/2021,2000,g  7.0,6.0
# From MPC100283
40P/Vaisala,e,11.4693,133.7785,47.4043,4.953028,0.0894124,0.62962827,229.2189,11/16.0/2021,2000,g  5.5,12.0
# From MPC105240
41P/Tuttle-Giacobini-Kresak,e,9.2209,140.9878,62.2315,3.087628,0.1816630,0.65995721,305.2424,11/16.0/2021,2000,g 10.0,16.0
# From MPC 94283
42P/Neujmin,e,3.9914,150.1753,147.2293,4.873076,0.0916219,0.58522105,220.7816,11/16.0/2021,2000,g 13.0,6.0
# From MPC102956
43P/Wolf-Harrington,e,9.3365,244.1233,224.1154,4.316066,0.1099188,0.43567363,210.5690,11/16.0/2021,2000,g  8.0,6.0
# From MPEC 2021-TD0
44P/Reinmuth,e,5.8979,286.4813,58.1173,3.690370,0.1390270,0.42756343,337.9791,11/16.0/2021,2000,g  8.3,6.0
# From MPC103849
45P/Honda-Mrkos-Pajdusakova,e,4.3230,87.7060,327.9097,3.052631,0.1847960,0.81749646,330.3316,11/16.0/2021,2000,g 13.5,8.0
# From MPEC 2021-O56
46P/Wirtanen,e,11.7451,82.1570,356.3355,3.091921,0.1812849,0.65837867,193.9585,11/16.0/2021,2000,g 14.0,6.0
# From MPEC 2021-S45
